NORAD_CAT_ID,OBJECT_NAME,OBJECT_TYPE,EPOCH,MEAN_MOTION,ECCENTRICITY,INCLINATION,RA_OF_ASC_NODE,ARG_OF_PERICENTER,MEAN_ANOMALY,BSTAR,MEAN_MOTION_DOT,MEAN_MOTION_DDOT,TLE_LINE0,TLE_LINE1,TLE_LINE2,SEMIMAJOR_AXIS,PERIOD,APOGEE,PERIGEE,DECAYED
55752.0,STARLINK-5613,PAYLOAD,2024-07-13 18:42:48,14.98337724,0.0003027,70.0016,326.9949,268.5055,91.5758,2.0457e-05,1.51e-06,0.0,0 STARLINK-5613,1 55752U 23028M   24195.77972730  .00000151  00000-0  20457-4 0  9991,2 55752  70.0016 326.9949 0003027 268.5055  91.5758 14.98337724 75583,6950.169,96.107,574.138,569.93,0.0
55752.0,STARLINK-5613,PAYLOAD,2024-07-14 12:20:17,14.98330674,0.0003023,70.0017,325.1434,268.601,91.4803,9.5161e-05,1.043e-05,0.0,0 STARLINK-5613,1 55752U 23028M   24196.51408930  .00001043  00000-0  95161-4 0  9995,2 55752  70.0017 325.1434 0003023 268.6010  91.4803 14.98330674 75691,6950.191,96.107,574.157,569.955,0.0
55752.0,STARLINK-5613,PAYLOAD,2024-07-14 13:56:25,14.98331074,0.0003022,70.0016,324.9751,268.6037,91.4775,9.7769e-05,1.074e-05,0.0,0 STARLINK-5613,1 55752U 23028M   24196.58084899  .00001074  00000-0  97769-4 0  9996,2 55752  70.0016 324.9751 0003022 268.6037  91.4775 14.98331074 75702,6950.19,96.107,574.155,569.954,0.0
55752.0,STARLINK-5613,PAYLOAD,2024-07-14 18:44:48,14.9833948,0.0002947,70.0017,324.4702,267.4644,92.6178,0.00012712,1.424e-05,0.0,0 STARLINK-5613,1 55752U 23028M   24196.78112219  .00001424  00000-0  12712-3 0  9999,2 55752  70.0017 324.4702 0002947 267.4644  92.6178 14.98339480 75732,6950.164,96.106,574.077,569.98,0.0
55752.0,STARLINK-5613,PAYLOAD,2024-07-15 12:22:18,14.98327221,0.0002718,70.0024,322.6195,265.5548,94.5301,6.6484e-08,-9.2e-07,0.0,0 STARLINK-5613,1 55752U 23028M   24197.51549249 -.00000092  00000-0  66484-7 0  9998,2 55752  70.0024 322.6195 0002718 265.5548  94.5301 14.98327221 75845,6950.201,96.107,573.956,570.177,0.0
55752.0,STARLINK-5613,PAYLOAD,2024-07-15 13:58:26,14.98326622,0.0002965,70.0024,322.4512,271.2746,88.8074,-5.6357e-07,-1e-06,0.0,0 STARLINK-5613,1 55752U 23028M   24197.58225298 -.00000100  00000-0 -56357-6 0  9998,2 55752  70.0024 322.4512 0002965 271.2746  88.8074 14.98326622 75852,6950.203,96.107,574.129,570.008,0.0
55752.0,STARLINK-5613,PAYLOAD,2024-07-15 18:46:50,14.98330081,0.000284,70.0023,321.9467,267.3851,92.6983,2.908e-05,2.54e-06,0.0,0 STARLINK-5613,1 55752U 23028M   24197.78253010  .00000254  00000-0  29080-4 0  9992,2 55752  70.0023 321.9467 0002840 267.3851  92.6983 14.98330081 75888,6950.193,96.107,574.031,570.084,0.0
55752.0,STARLINK-5613,PAYLOAD,2024-07-16 12:24:19,14.98332964,0.0002995,70.0015,320.0934,268.3607,91.7209,-2.2867e-06,-1.2e-06,0.0,0 STARLINK-5613,1 55752U 23028M   24198.51688754 -.00000120  00000-0 -22867-5 0  9992,2 55752  70.0015 320.0934 0002995 268.3607  91.7209 14.98332964 75994,6950.184,96.107,574.13,569.967,0.0
55752.0,STARLINK-5613,PAYLOAD,2024-07-16 17:12:42,14.98337206,0.0002791,70.002,319.5885,267.9009,92.1831,7.1e-05,7.54e-06,0.0,0 STARLINK-5613,1 55752U 23028M   24198.71716250  .00000754  00000-0  71000-4 0  9990,2 55752  70.0020 319.5885 0002791 267.9009  92.1831 14.98337206 76028,6950.171,96.107,573.975,570.096,0.0
55752.0,STARLINK-5613,PAYLOAD,2024-07-17 12:26:20,14.98320303,0.0002899,70.0016,317.5688,268.8034,91.2793,-2.8249e-05,-4.3e-06,0.0,0 STARLINK-5613,1 55752U 23028M   24199.51829713 -.00000430  00000-0 -28249-4 0  9998,2 55752  70.0016 317.5688 0002899 268.8034  91.2793 14.98320303 76149,6950.223,96.108,574.103,570.073,0.0
55752.0,STARLINK-5613,PAYLOAD,2024-07-17 14:02:28,14.98322875,0.0003019,70.0014,317.4006,266.125,93.9564,-2.5602e-05,-3.98e-06,0.0,0 STARLINK-5613,1 55752U 23028M   24199.58505545 -.00000398  00000-0 -25602-4 0  9992,2 55752  70.0014 317.4006 0003019 266.1250  93.9564 14.98322875 76158,6950.215,96.107,574.178,569.982,0.0
55752.0,STARLINK-5613,PAYLOAD,2024-07-17 17:14:44,14.98325992,0.00032,70.0007,317.063,270.986,89.0933,1.4785e-05,8.3e-07,0.0,0 STARLINK-5613,1 55752U 23028M   24199.71857286  .00000083  00000-0  14785-4 0  9998,2 55752  70.0007 317.0630 0003200 270.9860  89.0933 14.98325992 76172,6950.205,96.107,574.294,569.846,0.0
55752.0,STARLINK-5613,PAYLOAD,2024-07-18 14:04:29,14.98329942,0.0003024,70.0009,314.8755,270.6427,89.4386,8.3774e-07,-8.3e-07,0.0,0 STARLINK-5613,1 55752U 23028M   24200.58645388 -.00000083  00000-0  83774-6 0  9991,2 55752  70.0009 314.8755 0003024 270.6427  89.4386 14.98329942 76307,6950.193,96.107,574.16,569.956,0.0
55752.0,STARLINK-5613,PAYLOAD,2024-07-18 17:16:45,14.98334187,0.0002989,70.001,314.5394,272.0707,88.011,5.0717e-05,5.12e-06,0.0,0 STARLINK-5613,1 55752U 23028M   24200.71997014  .00000512  00000-0  50717-4 0  9997,2 55752  70.0010 314.5394 0002989 272.0707  88.0110 14.98334187 76320,6950.18,96.107,574.122,569.968,0.0
55752.0,STARLINK-5613,PAYLOAD,2024-07-19 14:06:29,14.9833371,0.0002769,70.0013,312.3499,265.917,94.1673,0.00022518,2.595e-05,0.0,0 STARLINK-5613,1 55752U 23028M   24201.58784586  .00002595  00000-0  22518-3 0  9991,2 55752  70.0013 312.3499 0002769 265.9170  94.1673 14.98333710 76453,6950.181,96.107,573.971,570.122,0.0
55752.0,STARLINK-5613,PAYLOAD,2024-07-19 17:18:45,14.9833635,0.0002832,70.0014,312.0135,267.6011,92.4824,0.00023549,2.718e-05,0.0,0 STARLINK-5613,1 55752U 23028M   24201.72136387  .00002718  00000-0  23549-3 0  9999,2 55752  70.0014 312.0135 0002832 267.6011  92.4824 14.98336350 76476,6950.173,96.107,574.007,570.07,0.0
55752.0,STARLINK-5613,PAYLOAD,2024-07-20 01:19:26,14.98328612,0.0002992,70.0013,311.1714,267.3019,92.7797,5.548e-05,5.69e-06,0.0,0 STARLINK-5613,1 55752U 23028M   24202.05517213  .00000569  00000-0  55480-4 0  9999,2 55752  70.0013 311.1714 0002992 267.3019  92.7797 14.98328612 76520,6950.197,96.107,574.142,569.983,0.0
55752.0,STARLINK-5613,PAYLOAD,2024-07-20 14:08:31,14.98331657,0.000279,70.0011,309.8253,271.3544,88.7296,5.9918e-05,6.22e-06,0.0,0 STARLINK-5613,1 55752U 23028M   24202.58925259  .00000622  00000-0  59918-4 0  9990,2 55752  70.0011 309.8253 0002790 271.3544  88.7296 14.98331657 76605,6950.188,96.107,573.992,570.114,0.0
55752.0,STARLINK-5613,PAYLOAD,2024-07-20 17:20:47,14.9833374,0.0002826,70.0013,309.4888,271.1187,88.9649,8.436e-05,9.14e-06,0.0,0 STARLINK-5613,1 55752U 23028M   24202.72277066  .00000914  00000-0  84360-4 0  9995,2 55752  70.0013 309.4888 0002826 271.1187  88.9649 14.98333740 76629,6950.181,96.107,574.01,570.082,0.0
55752.0,STARLINK-5613,PAYLOAD,2024-07-21 10:58:16,14.98334643,0.0002831,70.0014,307.6374,269.3048,90.7787,2.6202e-05,2.2e-06,0.0,0 STARLINK-5613,1 55752U 23028M   24203.45713013  .00000220  00000-0  26202-4 0  9994,2 55752  70.0014 307.6374 0002831 269.3048  90.7787 14.98334643 76730,6950.179,96.107,574.011,570.076,0.0
55752.0,STARLINK-5613,PAYLOAD,2024-07-21 14:10:32,14.98335708,0.0002862,70.0015,307.3008,273.1755,86.9077,5.3007e-05,5.4e-06,0.0,0 STARLINK-5613,1 55752U 23028M   24203.59064887  .00000540  00000-0  53007-4 0  9995,2 55752  70.0015 307.3008 0002862 273.1755  86.9077 14.98335708 76758,6950.175,96.107,574.029,570.051,0.0
55752.0,STARLINK-5613,PAYLOAD,2024-07-21 17:22:47,14.98339653,0.0002834,70.0016,306.9642,272.2138,87.8697,9.2739e-05,1.014e-05,0.0,0 STARLINK-5613,1 55752U 23028M   24203.72416487  .00001014  00000-0  92739-4 0  9999,2 55752  70.0016 306.9642 0002834 272.2138  87.8697 14.98339653 76775,6950.163,96.106,573.998,570.058,0.0
55752.0,STARLINK-5613,PAYLOAD,2024-07-22 09:24:09,14.98315297,0.0002621,70.0022,305.2825,269.8618,90.2241,0.00029427,3.419e-05,0.0,0 STARLINK-5613,1 55752U 23028M   24204.39177523  .00003419  00000-0  29427-3 0  9992,2 55752  70.0022 305.2825 0002621 269.8618  90.2241 14.98315297 76878,6950.238,96.108,573.925,570.282,0.0
55752.0,STARLINK-5613,PAYLOAD,2024-07-23 12:38:25,14.98333933,0.0003004,70.0006,302.4196,266.3983,93.6832,4.2969e-05,4.2e-06,0.0,0 STARLINK-5613,1 55752U 23028M   24205.52668699  .00000420  00000-0  42969-4 0  9993,2 55752  70.0006 302.4196 0003004 266.3983  93.6832 14.98333933 77043,6950.181,96.107,574.134,569.958,0.0
55752.0,STARLINK-5613,PAYLOAD,2024-07-24 09:28:11,14.98325894,0.0002871,69.9988,300.2278,258.8283,101.2553,-2.6297e-05,-4.07e-06,0.0,0 STARLINK-5613,1 55752U 23028M   24206.39457395 -.00000407  00000-0 -26297-4 0  9991,2 55752  69.9988 300.2278 0002871 258.8283 101.2553 14.98325894 77173,6950.206,96.107,574.066,570.075,0.0
55752.0,STARLINK-5613,PAYLOAD,2024-07-25 06:17:55,14.98329154,0.0002799,69.9988,298.0386,255.0176,105.0674,6.7032e-05,7.07e-06,0.0,0 STARLINK-5613,1 55752U 23028M   24207.26245014  .00000707  00000-0  67032-4 0  9994,2 55752  69.9988 298.0386 0002799 255.0176 105.0674 14.98329154 77300,6950.196,96.107,574.006,570.115,0.0
55752.0,STARLINK-5613,PAYLOAD,2024-07-25 09:30:11,14.98329609,0.0002869,69.9992,297.7027,257.1608,102.923,6.8922e-05,7.29e-06,0.0,0 STARLINK-5613,1 55752U 23028M   24207.39597012  .00000729  00000-0  68922-4 0  9999,2 55752  69.9992 297.7027 0002869 257.1608 102.9230 14.98329609 77325,6950.194,96.107,574.053,570.065,0.0
55752.0,STARLINK-5613,PAYLOAD,2024-07-26 09:32:12,14.98336983,0.0003237,69.9996,295.1805,267.9342,92.1446,0.00018247,2.085e-05,0.0,0 STARLINK-5613,1 55752U 23028M   24208.39736170  .00002085  00000-0  18247-3 0  9991,2 55752  69.9996 295.1805 0003237 267.9342  92.1446 14.98336983 77477,6950.171,96.107,574.286,569.787,0.0
55752.0,STARLINK-5613,PAYLOAD,2024-07-26 12:44:27,14.98343283,0.000321,69.9995,294.8444,268.8583,91.2208,0.00024168,2.793e-05,0.0,0 STARLINK-5613,1 55752U 23028M   24208.53087554  .00002793  00000-0  24168-3 0  9997,2 55752  69.9995 294.8444 0003210 268.8583  91.2208 14.98343283 77498,6950.152,96.106,574.248,569.786,0.0
55752.0,STARLINK-5613,PAYLOAD,2024-07-27 06:21:56,14.98341775,0.0002893,70.0008,292.9939,273.5828,86.5,-5.3326e-05,-7.29e-06,0.0,0 STARLINK-5613,1 55752U 23028M   24209.26524289 -.00000729  00000-0 -53326-4 0  9997,2 55752  70.0008 292.9939 0002893 273.5828  86.5000 14.98341775 77609,6950.156,96.106,574.032,570.011,0.0
